NORAD_CAT_ID,OBJECT_NAME,OBJECT_TYPE,EPOCH,MEAN_MOTION,ECCENTRICITY,INCLINATION,RA_OF_ASC_NODE,ARG_OF_PERICENTER,MEAN_ANOMALY,BSTAR,MEAN_MOTION_DOT,MEAN_MOTION_DDOT,TLE_LINE0,TLE_LINE1,TLE_LINE2,SEMIMAJOR_AXIS,PERIOD,APOGEE,PERIGEE,DECAYED
52349.0,STARLINK-3819,PAYLOAD,2024-05-13 22:12:57,15.08871751,0.0001654,53.2157,303.3636,88.4604,271.6577,0.0011791,0.00018543,0.0,0 STARLINK-3819,1 52349U 22045U   24134.92566105  .00018543  00000-0  11791-2 0  9996,2 52349  53.2157 303.3636 0001654  88.4604 271.6577 15.08871751115429,6917.783,95.436,540.793,538.504,0.0
52349.0,STARLINK-3819,PAYLOAD,2024-05-14 04:34:29,15.0886768,0.0001664,53.2157,302.1735,89.3825,270.7357,0.00061069,9.452e-05,0.0,0 STARLINK-3819,1 52349U 22045U   24135.19061705  .00009452  00000-0  61069-3 0  9995,2 52349  53.2157 302.1735 0001664  89.3825 270.7357 15.08867680115468,6917.796,95.436,540.812,538.51,0.0
52349.0,STARLINK-3819,PAYLOAD,2024-05-14 12:31:24,15.08860264,0.0001587,53.2157,300.6866,93.9081,266.2092,9.3011e-05,1.193e-05,0.0,0 STARLINK-3819,1 52349U 22045U   24135.52181395  .00001193  00000-0  93011-4 0  9997,2 52349  53.2157 300.6866 0001587  93.9081 266.2092 15.08860264115518,6917.818,95.436,540.781,538.586,0.0
52349.0,STARLINK-3819,PAYLOAD,2024-05-14 14:06:47,15.08864167,0.0001653,53.2158,300.3891,98.3706,261.7473,0.00027635,4.116e-05,0.0,0 STARLINK-3819,1 52349U 22045U   24135.58805255  .00004116  00000-0  27635-3 0  9997,2 52349  53.2158 300.3891 0001653  98.3706 261.7473 15.08864167115521,6917.807,95.436,540.815,538.528,0.0
52349.0,STARLINK-3819,PAYLOAD,2024-05-14 20:28:21,15.08794459,0.0001317,53.2159,299.1998,101.8792,258.2348,-0.0016876,-0.00027012,0.0,0 STARLINK-3819,1 52349U 22045U   24135.85303091 -.00027012  00000-0 -16876-2 0  9994,2 52349  53.2159 299.1998 0001317 101.8792 258.2348 15.08794459115569,6918.02,95.44,540.796,538.973,0.0
52349.0,STARLINK-3819,PAYLOAD,2024-05-14 22:03:45,15.08793682,0.0001314,53.2158,298.9025,102.4454,257.6685,-0.0015046,-0.00024123,0.0,0 STARLINK-3819,1 52349U 22045U   24135.91927307 -.00024123  00000-0 -15046-2 0  9991,2 52349  53.2158 298.9025 0001314 102.4454 257.6685 15.08793682115570,6918.022,95.44,540.796,538.978,0.0
52349.0,STARLINK-3819,PAYLOAD,2024-05-15 04:25:17,15.08834805,0.0001486,53.2158,297.7127,100.8779,259.238,0.00068673,0.00010657,0.0,0 STARLINK-3819,1 52349U 22045U   24136.18422938  .00010657  00000-0  68673-3 0  9991,2 52349  53.2158 297.7127 0001486 100.8779 259.2380 15.08834805115610,6917.896,95.438,540.789,538.733,0.0
52349.0,STARLINK-3819,PAYLOAD,2024-05-15 13:57:36,15.08845473,0.0001022,53.2158,295.9287,104.7752,255.3354,0.001276,0.00020081,0.0,0 STARLINK-3819,1 52349U 22045U   24136.58166947  .00020081  00000-0  12760-2 0  9997,2 52349  53.2158 295.9287 0001022 104.7752 255.3354 15.08845473115674,6917.864,95.437,540.436,539.022,0.0
52349.0,STARLINK-3819,PAYLOAD,2024-05-15 17:08:22,15.08859329,0.0001423,53.216,295.3339,103.2372,256.8779,0.0017128,0.00027091,0.0,0 STARLINK-3819,1 52349U 22045U   24136.71414769  .00027091  00000-0  17128-2 0  9991,2 52349  53.2160 295.3339 0001423 103.2372 256.8779 15.08859329115690,6917.821,95.436,540.671,538.702,0.0
52349.0,STARLINK-3819,PAYLOAD,2024-05-16 10:37:35,15.08868349,0.0001638,53.2161,292.0618,100.7514,259.3663,0.00033838,5.106e-05,0.0,0 STARLINK-3819,1 52349U 22045U   24137.44277651  .00005106  00000-0  33838-3 0  9999,2 52349  53.2161 292.0618 0001638 100.7514 259.3663 15.08868349115808,6917.794,95.436,540.792,538.526,0.0
52349.0,STARLINK-3819,PAYLOAD,2024-05-16 16:59:08,15.08859768,0.0001401,53.2159,290.8731,104.476,255.6388,0.00022324,3.269e-05,0.0,0 STARLINK-3819,1 52349U 22045U   24137.70773478  .00003269  00000-0  22324-3 0  9992,2 52349  53.2159 290.8731 0001401 104.4760 255.6388 15.08859768115841,6917.82,95.436,540.654,538.716,0.0
52349.0,STARLINK-3819,PAYLOAD,2024-05-17 10:28:22,15.08844068,0.0001315,53.2153,287.6023,283.7634,76.3212,-2.5426e-06,-3.28e-06,0.0,0 STARLINK-3819,1 52349U 22045U   24138.43637565 -.00000328  00000-0 -25426-5 0  9992,2 52349  53.2153 287.6023 0001315 283.7634  76.3212 15.08844068115951,6917.868,95.437,540.643,538.823,0.0
52349.0,STARLINK-3819,PAYLOAD,2024-05-18 11:54:33,15.08838408,0.0001876,53.2146,282.8451,95.148,264.9726,1.1032e-05,-1.13e-06,0.0,0 STARLINK-3819,1 52349U 22045U   24139.49622000 -.00000113  00000-0  11032-4 0  9995,2 52349  53.2146 282.8451 0001876  95.1480 264.9726 15.08838408116116,6917.885,95.438,541.048,538.452,0.0
52349.0,STARLINK-3819,PAYLOAD,2024-05-18 13:29:55,15.08849241,1.61e-05,53.2156,282.5459,66.5777,293.5232,0.00015853,2.237e-05,0.0,0 STARLINK-3819,1 52349U 22045U   24139.56245057  .00002237  00000-0  15853-3 0  9998,2 52349  53.2156 282.5459 0000161  66.5777 293.5232 15.08849241116127,6917.852,95.437,539.829,539.606,0.0
52349.0,STARLINK-3819,PAYLOAD,2024-05-18 16:40:41,15.0885542,0.0001488,53.2154,281.9542,95.9367,264.1795,0.00025898,3.838e-05,0.0,0 STARLINK-3819,1 52349U 22045U   24139.69493023  .00003838  00000-0  25898-3 0  9998,2 52349  53.2154 281.9542 0001488  95.9367 264.1795 15.08855420116141,6917.833,95.437,540.728,538.669,0.0
52349.0,STARLINK-3819,PAYLOAD,2024-05-19 13:20:45,15.08803209,0.0001447,53.2145,278.0869,102.5946,257.5208,-0.0003901,-6.485e-05,0.0,0 STARLINK-3819,1 52349U 22045U   24140.55607658 -.00006485  00000-0 -39010-3 0  9990,2 52349  53.2145 278.0869 0001447 102.5946 257.5208 15.08803209116270,6917.993,95.44,540.859,538.857,0.0
52349.0,STARLINK-3819,PAYLOAD,2024-05-19 19:42:17,15.08821531,0.000151,53.2148,276.8972,122.0882,238.0257,-9.6306e-05,-1.82e-05,0.0,0 STARLINK-3819,1 52349U 22045U   24140.82103116 -.00001820  00000-0 -96306-4 0  9990,2 52349  53.2148 276.8972 0001510 122.0882 238.0257 15.08821531116312,6917.937,95.439,540.846,538.757,0.0
52349.0,STARLINK-3819,PAYLOAD,2024-05-20 13:11:31,15.08836046,0.0001132,53.2162,273.6276,104.85,255.2617,0.00012821,1.753e-05,0.0,0 STARLINK-3819,1 52349U 22045U   24141.54966828  .00001753  00000-0  12821-3 0  9999,2 52349  53.2162 273.6276 0001132 104.8500 255.2617 15.08836046116425,6917.892,95.438,540.541,538.974,0.0
52349.0,STARLINK-3819,PAYLOAD,2024-05-20 17:57:39,15.08856333,0.0001313,53.2162,272.7331,112.2753,247.8379,0.00029061,4.342e-05,0.0,0 STARLINK-3819,1 52349U 22045U   24141.74837835  .00004342  00000-0  29061-3 0  9997,2 52349  53.2162 272.7331 0001313 112.2753 247.8379 15.08856333116457,6917.83,95.437,540.604,538.787,0.0
52349.0,STARLINK-3819,PAYLOAD,2024-05-21 13:02:18,15.0883656,0.0001461,53.2181,269.1607,119.6914,240.4224,0.00044641,6.823e-05,0.0,0 STARLINK-3819,1 52349U 22045U   24142.54326793  .00006823  00000-0  44641-3 0  9999,2 52349  53.2181 269.1607 0001461 119.6914 240.4224 15.08836560116579,6917.891,95.438,540.767,538.745,0.0
52349.0,STARLINK-3819,PAYLOAD,2024-05-21 14:37:41,15.08841338,0.0001491,53.2174,268.8622,137.3576,222.7532,0.0003002,4.493e-05,0.0,0 STARLINK-3819,1 52349U 22045U   24142.60950426  .00004493  00000-0  30020-3 0  9999,2 52349  53.2174 268.8622 0001491 137.3576 222.7532 15.08841338116583,6917.876,95.437,540.773,538.71,0.0
52349.0,STARLINK-3819,PAYLOAD,2024-05-21 16:13:04,15.08839217,0.0001339,53.2171,268.5676,132.6907,227.4199,0.00026788,3.978e-05,0.0,0 STARLINK-3819,1 52349U 22045U   24142.67574741  .00003978  00000-0  26788-3 0  9991,2 52349  53.2171 268.5676 0001339 132.6907 227.4199 15.08839217116598,6917.883,95.438,540.674,538.821,0.0
52349.0,STARLINK-3819,PAYLOAD,2024-05-23 12:43:52,15.08838762,0.0001112,53.2174,260.2432,86.0302,274.0818,8.0757e-05,9.98e-06,0.0,0 STARLINK-3819,1 52349U 22045U   24144.53046844  .00000998  00000-0  80757-4 0  9992,2 52349  53.2174 260.2432 0001112  86.0302 274.0818 15.08838762116871,6917.884,95.438,540.518,538.98,0.0
52349.0,STARLINK-3819,PAYLOAD,2024-05-23 14:19:15,15.08839672,0.0001147,53.2168,259.9455,87.5468,272.5655,9.2648e-05,1.187e-05,0.0,0 STARLINK-3819,1 52349U 22045U   24144.59670747  .00001187  00000-0  92648-4 0  9996,2 52349  53.2168 259.9455 0001147  87.5468 272.5655 15.08839672116885,6917.881,95.438,540.54,538.953,0.0
52349.0,STARLINK-3819,PAYLOAD,2024-05-24 12:34:39,15.08842268,0.0001233,53.2154,255.7824,90.9054,269.2079,0.00018425,2.646e-05,0.0,0 STARLINK-3819,1 52349U 22045U   24145.52406685  .00002646  00000-0  18425-3 0  9999,2 52349  53.2154 255.7824 0001233  90.9054 269.2079 15.08842268117024,6917.873,95.437,540.591,538.885,0.0
52349.0,STARLINK-3819,PAYLOAD,2024-05-24 17:20:48,15.08845047,0.0001314,53.2158,254.8889,99.6627,260.4513,0.0002189,3.198e-05,0.0,0 STARLINK-3819,1 52349U 22045U   24145.72278457  .00003198  00000-0  21890-3 0  9998,2 52349  53.2158 254.8889 0001314  99.6627 260.4513 15.08845047117058,6917.865,95.437,540.639,538.821,0.0
52349.0,STARLINK-3819,PAYLOAD,2024-05-25 14:00:50,15.0883087,0.0001172,53.216,251.0258,83.7766,276.3359,-5.2216e-05,-1.119e-05,0.0,0 STARLINK-3819,1 52349U 22045U   24146.58391344 -.00001119  00000-0 -52216-4 0  9994,2 52349  53.2160 251.0258 0001172  83.7766 276.3359 15.08830870117186,6917.908,95.438,540.584,538.963,0.0
52349.0,STARLINK-3819,PAYLOAD,2024-05-26 12:16:13,15.08839627,0.0001294,53.2168,246.8643,94.2952,265.8188,8.0519e-05,9.94e-06,0.0,0 STARLINK-3819,1 52349U 22045U   24147.51127186  .00000994  00000-0  80519-4 0  9994,2 52349  53.2168 246.8643 0001294  94.2952 265.8188 15.08839627117321,6917.882,95.438,540.642,538.851,0.0
52349.0,STARLINK-3819,PAYLOAD,2024-05-27 13:42:24,15.08836193,0.0001196,53.2168,242.1064,76.8415,283.2711,0.00016404,2.324e-05,0.0,0 STARLINK-3819,1 52349U 22045U   24148.57111418  .00002324  00000-0  16404-3 0  9992,2 52349  53.2168 242.1064 0001196  76.8415 283.2711 15.08836193117486,6917.892,95.438,540.584,538.93,0.0
52349.0,STARLINK-3819,PAYLOAD,2024-05-28 13:33:11,15.08843662,0.0001268,53.2172,237.6461,79.7328,280.3808,7.0166e-05,8.29e-06,0.0,0 STARLINK-3819,1 52349U 22045U   24149.56471176  .00000829  00000-0  70166-4 0  9996,2 52349  53.2172 237.6461 0001268  79.7328 280.3808 15.08843662117637,6917.869,95.437,540.611,538.857,0.0
